{
  "type": "FeatureCollection",
  "features": [
    {
      "type": "Feature",
      "properties": {
        "norad_id": 66919,
        "name": "HULIANWANG DIGUI-109",
        "group": "last-30-days",
        "lat": -29.643754260320414,
        "lon": -89.04222925968764,
        "alt_km": 887.0150629639329,
        "timestamp": "2025-12-26T04:40:04.512783+00:00",
        "meta_object_name": "HULIANWANG DIGUI-109",
        "meta_object_id": "2025-285E",
        "meta_epoch": "2025-12-25T22:29:49.778880",
        "meta_mean_motion": 14.03728342,
        "meta_eccentricity": 0.00079392,
        "meta_inclination": 50.0077,
        "meta_ra_of_asc_node": 63.4703,
        "meta_arg_of_pericenter": 336.348,
        "meta_mean_anomaly": 23.7059,
        "meta_ephemeris_type": 0,
        "meta_classification_type": "U",
        "meta_norad_cat_id": 66919,
        "meta_element_set_no": 999,
        "meta_rev_at_epoch": 276,
        "meta_bstar": 0.00012692692,
        "meta_mean_motion_dot": 4.9e-07,
        "meta_mean_motion_ddot": 0,
        "tle_line1": "1 66919U 25285E   25359.93738170  .00000049  00000+0  12693-3 0  9991",
        "tle_line2": "2 66919  50.0077  63.4703 0007939 336.3480  23.7059 14.03728342  2765"
      },
      "geometry": {
        "type": "Point",
        "coordinates": [
          -89.04222925968764,
          -29.643754260320414
        ]
      }
    },
    {
      "type": "Feature",
      "properties": {
        "norad_id": 66920,
        "name": "HULIANWANG DIGUI-110",
        "group": "last-30-days",
        "lat": -31.97590436681479,
        "lon": -85.97882384348375,
        "alt_km": 886.1378291763995,
        "timestamp": "2025-12-26T04:40:04.512792+00:00",
        "meta_object_name": "HULIANWANG DIGUI-110",
        "meta_object_id": "2025-285F",
        "meta_epoch": "2025-12-25T22:28:49.437120",
        "meta_mean_motion": 14.03684477,
        "meta_eccentricity": 0.00056514,
        "meta_inclination": 50.0122,
        "meta_ra_of_asc_node": 63.4743,
        "meta_arg_of_pericenter": 333.3263,
        "meta_mean_anomaly": 26.735,
        "meta_ephemeris_type": 0,
        "meta_classification_type": "U",
        "meta_norad_cat_id": 66920,
        "meta_element_set_no": 999,
        "meta_rev_at_epoch": 276,
        "meta_bstar": 0.00011440624,
        "meta_mean_motion_dot": 2.9e-07,
        "meta_mean_motion_ddot": 0,
        "tle_line1": "1 66920U 25285F   25359.93668330  .00000029  00000+0  11441-3 0  9991",
        "tle_line2": "2 66920  50.0122  63.4743 0005651 333.3263  26.7350 14.03684477  2764"
      },
      "geometry": {
        "type": "Point",
        "coordinates": [
          -85.97882384348375,
          -31.97590436681479
        ]
      }
    },
    {
      "type": "Feature",
      "properties": {
        "norad_id": 66921,
        "name": "HULIANWANG DIGUI-111",
        "group": "last-30-days",
        "lat": -34.20418964248334,
        "lon": -82.79722641965292,
        "alt_km": 886.7562544612374,
        "timestamp": "2025-12-26T04:40:04.512804+00:00",
        "meta_object_name": "HULIANWANG DIGUI-111",
        "meta_object_id": "2025-285G",
        "meta_epoch": "2025-12-25T22:27:48.971808",
        "meta_mean_motion": 14.03634064,
        "meta_eccentricity": 0.000673,
        "meta_inclination": 50.0126,
        "meta_ra_of_asc_node": 63.4743,
        "meta_arg_of_pericenter": 337.2389,
        "meta_mean_anomaly": 22.8216,
        "meta_ephemeris_type": 0,
        "meta_classification_type": "U",
        "meta_norad_cat_id": 66921,
        "meta_element_set_no": 999,
        "meta_rev_at_epoch": 276,
        "meta_bstar": 0.0001200085,
        "meta_mean_motion_dot": 3.8e-07,
        "meta_mean_motion_ddot": 0,
        "tle_line1": "1 66921U 25285G   25359.93598347  .00000038  00000+0  12001-3 0  9995",
        "tle_line2": "2 66921  50.0126  63.4743 0006730 337.2389  22.8216 14.03634064  2765"
      },
      "geometry": {
        "type": "Point",
        "coordinates": [
          -82.79722641965292,
          -34.20418964248334
        ]
      }
    },
    {
      "type": "Feature",
      "properties": {
        "norad_id": 66922,
        "name": "HULIANWANG DIGUI-112",
        "group": "last-30-days",
        "lat": -37.68187574142007,
        "lon": -77.18527688378632,
        "alt_km": 887.1657360368508,
        "timestamp": "2025-12-26T04:40:04.512815+00:00",
        "meta_object_name": "HULIANWANG DIGUI-112",
        "meta_object_id": "2025-285H",
        "meta_epoch": "2025-12-25T22:26:11.707872",
        "meta_mean_motion": 14.03664066,
        "meta_eccentricity": 0.00065423,
        "meta_inclination": 50.01,
        "meta_ra_of_asc_node": 63.4599,
        "meta_arg_of_pericenter": 347.8219,
        "meta_mean_anomaly": 12.2526,
        "meta_ephemeris_type": 0,
        "meta_classification_type": "U",
        "meta_norad_cat_id": 66922,
        "meta_element_set_no": 999,
        "meta_rev_at_epoch": 276,
        "meta_bstar": 0.00011486537,
        "meta_mean_motion_dot": 3e-07,
        "meta_mean_motion_ddot": 0,
        "tle_line1": "1 66922U 25285H   25359.93485773  .00000030  00000+0  11487-3 0  9993",
        "tle_line2": "2 66922  50.0100  63.4599 0006542 347.8219  12.2526 14.03664066  2769"
      },
      "geometry": {
        "type": "Point",
        "coordinates": [
          -77.18527688378632,
          -37.68187574142007
        ]
      }
    },
    {
      "type": "Feature",
      "properties": {
        "norad_id": 66923,
        "name": "HULIANWANG DIGUI-113",
        "group": "last-30-days",
        "lat": -41.22789535352637,
        "lon": -70.25790078521014,
        "alt_km": 886.0404455337666,
        "timestamp": "2025-12-26T04:40:04.512827+00:00",
        "meta_object_name": "HULIANWANG DIGUI-113",
        "meta_object_id": "2025-285J",
        "meta_epoch": "2025-12-25T20:41:51.543168",
        "meta_mean_motion": 14.03702002,
        "meta_eccentricity": 0.00051536,
        "meta_inclination": 50.0098,
        "meta_ra_of_asc_node": 63.7449,
        "meta_arg_of_pericenter": 342.102,
        "meta_mean_anomaly": 17.9702,
        "meta_ephemeris_type": 0,
        "meta_classification_type": "U",
        "meta_norad_cat_id": 66923,
        "meta_element_set_no": 999,
        "meta_rev_at_epoch": 275,
        "meta_bstar": 0.00012574219,
        "meta_mean_motion_dot": 4.7e-07,
        "meta_mean_motion_ddot": 0,
        "tle_line1": "1 66923U 25285J   25359.86240212  .00000047  00000+0  12574-3 0  9999",
        "tle_line2": "2 66923  50.0098  63.7449 0005153 342.1020  17.9702 14.03702002  2758"
      },
      "geometry": {
        "type": "Point",
        "coordinates": [
          -70.25790078521014,
          -41.22789535352637
        ]
      }
    },
    {
      "type": "Feature",
      "properties": {
        "norad_id": 66924,
        "name": "CZ-8A R/B",
        "group": "last-30-days",
        "lat": -49.62109782915996,
        "lon": -40.363652324196345,
        "alt_km": 822.5913784022978,
        "timestamp": "2025-12-26T04:40:04.512837+00:00",
        "meta_object_name": "CZ-8A R/B",
        "meta_object_id": "2025-285K",
        "meta_epoch": "2025-12-25T10:40:55.363008",
        "meta_mean_motion": 14.30506687,
        "meta_eccentricity": 0.0119239,
        "meta_inclination": 50.0085,
        "meta_ra_of_asc_node": 62.0719,
        "meta_arg_of_pericenter": 151.535,
        "meta_mean_anomaly": 209.2146,
        "meta_ephemeris_type": 0,
        "meta_classification_type": "U",
        "meta_norad_cat_id": 66924,
        "meta_element_set_no": 999,
        "meta_rev_at_epoch": 274,
        "meta_bstar": 6.6135e-05,
        "meta_mean_motion_dot": 2.1e-07,
        "meta_mean_motion_ddot": 0,
        "tle_line1": "1 66924U 25285K   25359.44508522  .00000021  00000+0  66135-4 0  9990",
        "tle_line2": "2 66924  50.0085  62.0719 0119239 151.5350 209.2146 14.30506687  2744"
      },
      "geometry": {
        "type": "Point",
        "coordinates": [
          -40.363652324196345,
          -49.62109782915996
        ]
      }
    },
    {
      "type": "Feature",
      "properties": {
        "norad_id": 66925,
        "name": "STARLINK-35945",
        "group": "last-30-days",
        "lat": 3.8921483287274694,
        "lon": -13.657001099965827,
        "alt_km": 391.9230444124587,
        "timestamp": "2025-12-26T04:40:04.512847+00:00",
        "meta_object_name": "STARLINK-35945",
        "meta_object_id": "2025-286A",
        "meta_epoch": "2025-12-25T22:00:01.999584",
        "meta_mean_motion": 15.59848661,
        "meta_eccentricity": 0.00014992,
        "meta_inclination": 53.1595,
        "meta_ra_of_asc_node": 344.7678,
        "meta_arg_of_pericenter": 98.74,
        "meta_mean_anomaly": 145.9371,
        "meta_ephemeris_type": 0,
        "meta_classification_type": "U",
        "meta_norad_cat_id": 66925,
        "meta_element_set_no": 999,
        "meta_rev_at_epoch": 410,
        "meta_bstar": -0.026886014,
        "meta_mean_motion_dot": -0.01940313,
        "meta_mean_motion_ddot": 0,
        "tle_line1": "1 66925U 25286A   25359.91668981 -.01940313  00000+0 -26886-1 0  9996",
        "tle_line2": "2 66925  53.1595 344.7678 0001499  98.7400 145.9371 15.59848661  4106"
      },
      "geometry": {
        "type": "Point",
        "coordinates": [
          -13.657001099965827,
          3.8921483287274694
        ]
      }
    }
  ]
}